OBJECT_NAME,OBJECT_ID,EPOCH,MEAN_MOTION,ECCENTRICITY,INCLINATION,RA_OF_ASC_NODE,ARG_OF_PERICENTER,MEAN_ANOMALY,EPHEMERIS_TYPE,CLASSIFICATION_TYPE,NORAD_CAT_ID,ELEMENT_SET_NO,REV_AT_EPOCH,BSTAR,MEAN_MOTION_DOT,MEAN_MOTION_DDOT
DUBAISAT-1,2009-041B,2026-06-03T07:39:28.614816,14.75100900,.00116712,98.0035,287.7304,113.0569,247.1872,0,U,35682,999,90305,.16473908E-3,.1061E-4,0
OCEANSAT-2,2009-051A,2026-06-03T23:23:32.222400,13.99662209,.00145102,98.2320,143.1443,276.7113,83.2402,0,U,35931,999,87748,.17968538E-3,.225E-5,0
WORLDVIEW-2 (WV-2),2009-055A,2026-06-03T20:56:53.788992,14.37895287,.00031445,98.4738,228.5057,258.3233,101.7602,0,U,35946,999,87373,.63243457E-4,.147E-5,0
SMOS,2009-059A,2026-06-03T11:58:21.446112,14.39764952,.0001348,98.4425,342.0344,94.7834,265.3508,0,U,36036,999,87148,.10308E-3,.28E-5,0
YAOGAN-7,2009-069A,2026-06-03T18:02:46.627584,14.77995556,.0026031,98.0087,40.7010,83.0152,277.4018,0,U,36110,999,88764,.92742922E-4,.62E-5,0
TANDEM-X,2010-030A,2026-06-01T10:46:51.497760,15.19149361,.00017833,97.4445,160.3804,80.8335,279.3101,0,U,36605,999,88425,.38591092E-4,.743E-5,0
CARTOSAT-2B,2010-035A,2026-06-03T22:35:00.792960,14.78642251,.00102173,97.9955,205.5741,229.7060,130.3258,0,U,36795,999,85789,.46383117E-4,.287E-5,0
YAOGAN-10,2010-038A,2026-06-03T22:55:34.159008,14.85304071,.00015868,97.8975,178.4644,89.2281,25.3103,0,U,36834,999,85524,.15420339E-3,.1271E-4,0
COSMO-SKYMED 4,2010-060A,2026-06-03T22:35:57.340896,14.82159582,.00014066,97.8881,338.7334,85.5553,274.5821,0,U,37216,999,84260,.11403878E-3,.856E-5,0
RESOURCESAT-2,2011-015A,2026-06-03T20:34:10.568928,14.21603371,.0010197,98.7647,222.3905,298.4364,61.5785,0,U,37387,999,78428,.63992707E-4,.96E-6,0
HAIYANG-2A,2011-043A,2026-06-04T01:57:05.934816,13.74641471,.0006601,99.3401,158.0461,117.5796,242.6024,0,U,37781,999,74485,-.31615E-5,-.47E-6,0
RASAT,2011-044D,2026-06-03T23:03:18.703296,14.68152291,.00193553,98.0575,246.5590,232.4304,215.0692,0,U,37791,999,79124,.707655E-4,.359E-5,0
SRMSAT,2011-058D,2026-06-01T07:49:45.421824,14.11572059,.00118641,19.9701,155.4732,30.5063,85.9028,0,U,37841,999,75557,.70452217E-4,.395E-5,0
PLEIADES 1A,2011-076F,2026-06-03T23:08:24.080640,14.58561945,.00014413,98.1977,230.2438,100.7548,13.1394,0,U,38012,999,77006,.73233246E-4,.295E-5,0
ZIYUAN 1-02C (ZY 1-02C),2011-079A,2026-06-03T22:21:07.736256,14.38203322,.00063393,98.4075,222.5161,359.5442,86.6910,0,U,38038,999,75730,.14301077E-3,.391E-5,0
ARIRANG-3 (KOMPSAT-3),2012-025B,2026-06-03T21:27:20.043936,14.62193785,.00060238,98.1170,112.5840,143.9797,216.1812,0,U,38338,999,74940,.10767488E-3,.496E-5,0
EXACTVIEW-1 (ADS-1B),2012-039C,2026-06-03T06:25:43.227552,14.24980263,.00104098,98.9761,271.3447,206.5850,153.4796,0,U,38709,999,72072,.83610537E-4,.149E-5,0
SPOT 6,2012-047A,2026-06-03T22:59:09.811680,14.58554073,.00013864,98.2121,222.4204,93.9922,266.1436,0,U,38755,999,73112,.56701215E-4,.218E-5,0
PLEIADES 1B,2012-068A,2026-06-03T23:26:22.057152,14.58551414,.00015236,98.1948,230.2098,97.5814,262.5558,0,U,39019,999,71892,.63157765E-4,.248E-5,0
GOKTURK 2,2012-073A,2026-06-03T22:12:00.888192,14.75530826,.00019978,97.6820,353.0211,66.2908,293.8512,0,U,39030,999,72255,.15485229E-3,.1007E-4,0
LANDSAT 8,2013-008A,2026-06-03T21:48:38.522880,14.57109394,.00014534,98.2304,225.2012,97.7596,262.3767,0,U,39084,999,69596,.93368959E-4,.375E-5,0
SARAL,2013-009A,2026-06-03T21:54:19.837440,14.32852600,.00014748,98.5557,341.6483,5.4692,354.6508,0,U,39086,999,69370,.44877474E-4,.79E-6,0
GAOFEN-1,2013-018A,2026-06-03T21:59:12.715296,14.76521668,.00161282,97.9097,227.2533,312.7985,47.1868,0,U,39150,999,70628,.32006406E-4,.172E-5,0
VNREDSAT 1,2013-021B,2026-06-03T23:22:33.421152,14.64841898,.00016343,97.9083,208.8969,92.6406,267.4984,0,U,39160,999,69835,.10156955E-3,.497E-5,0
ARIRANG-5 (KOMPSAT-5),2013-042A,2026-06-03T22:20:27.826368,15.04540775,.00036951,97.6196,341.8171,159.4300,200.7075,0,U,39227,999,70186,.19985957E-3,.274E-4,0
SKYSAT-A,2013-066C,2026-06-03T15:11:15.971136,15.12895741,.002137,97.3817,204.4620,5.7951,354.3523,0,U,39418,999,68643,.19740705E-3,.3429E-4,0
DUBAISAT-2,2013-066D,2026-06-03T22:49:33.020832,15.10079904,.00132649,97.4566,145.4430,80.2809,279.9918,0,U,39419,999,68439,.30979115E-3,.4992E-4,0
GPM-CORE,2014-009C,2026-06-03T17:53:16.078272,15.45378586,.00120187,64.9729,353.1723,268.6447,91.3317,0,U,39574,999,69573,.21218831E-3,.9972E-4,0
SENTINEL-1A,2014-016A,2026-06-04T01:33:05.291712,14.59198949,.0001385,98.1787,162.7894,90.2470,269.8888,0,U,39634,999,64810,.4566E-4,.169E-5,0
KAZEOSAT 1,2014-024A,2026-06-03T23:27:24.094080,14.42073959,.00015131,98.3207,227.7524,78.9234,281.2126,0,U,39731,999,63665,.36327513E-4,.77E-6,0
