DUBAISAT-1              
1 35682U 09041B   26154.31908119  .00001061  00000+0  16474-3 0  9990
2 35682  98.0035 287.7304 0011671 113.0569 247.1872 14.75100900903058
OCEANSAT-2              
1 35931U 09051A   26154.97467850  .00000225  00000+0  17969-3 0  9993
2 35931  98.2320 143.1443 0014510 276.7113  83.2402 13.99662209877485
WORLDVIEW-2 (WV-2)      
1 35946U 09055A   26154.87284478  .00000147  00000+0  63243-4 0  9995
2 35946  98.4738 228.5057 0003144 258.3233 101.7602 14.37895287873734
SMOS                    
1 36036U 09059A   26154.49885933  .00000280  00000+0  10308-3 0  9992
2 36036  98.4425 342.0344 0001348  94.7834 265.3508 14.39764952871480
YAOGAN-7                
1 36110U 09069A   26154.75192856  .00000620  00000+0  92743-4 0  9992
2 36110  98.0087  40.7010 0026031  83.0152 277.4018 14.77995556887648
TANDEM-X                
1 36605U 10030A   26152.44920715  .00000743  00000+0  38591-4 0  9995
2 36605  97.4445 160.3804 0001783  80.8335 279.3101 15.19149361884253
CARTOSAT-2B             
1 36795U 10035A   26154.94098140  .00000287  00000+0  46383-4 0  9996
2 36795  97.9955 205.5741 0010217 229.7060 130.3258 14.78642251857896
YAOGAN-10               
1 36834U 10038A   26154.95525647  .00001271  00000+0  15420-3 0  9992
2 36834  97.8975 178.4644 0001586  89.2281  25.3103 14.85304071855246
COSMO-SKYMED 4          
1 37216U 10060A   26154.94163589  .00000856  00000+0  11404-3 0  9990
2 37216  97.8881 338.7334 0001406  85.5553 274.5821 14.82159582842609
RESOURCESAT-2           
1 37387U 11015A   26154.85706677  .00000096  00000+0  63993-4 0  9998
2 37387  98.7647 222.3905 0010197 298.4364  61.5785 14.21603371784287
HAIYANG-2A              
1 37781U 11043A   26155.08131869 -.00000047  00000+0 -31615-5 0  9993
2 37781  99.3401 158.0461 0006601 117.5796 242.6024 13.74641471744854
RASAT                   
1 37791U 11044D   26154.96063314  .00000359  00000+0  70765-4 0  9992
2 37791  98.0575 246.5590 0019355 232.4304 215.0692 14.68152291791242
SRMSAT                  
1 37841U 11058D   26152.32622016  .00000395  00000+0  70452-4 0  9994
2 37841  19.9701 155.4732 0011864  30.5063  85.9028 14.11572059755572
PLEIADES 1A             
1 38012U 11076F   26154.96416760  .00000295  00000+0  73233-4 0  9993
2 38012  98.1977 230.2438 0001441 100.7548  13.1394 14.58561945770063
ZIYUAN 1-02C (ZY 1-02C) 
1 38038U 11079A   26154.93133954  .00000391  00000+0  14301-3 0  9999
2 38038  98.4075 222.5161 0006339 359.5442  86.6910 14.38203322757309
ARIRANG-3 (KOMPSAT-3)   
1 38338U 12025B   26154.89398199  .00000496  00000+0  10767-3 0  9991
2 38338  98.1170 112.5840 0006023 143.9797 216.1812 14.62193785749406
EXACTVIEW-1 (ADS-1B)    
1 38709U 12039C   26154.26786143  .00000149  00000+0  83611-4 0  9993
2 38709  98.9761 271.3447 0010409 206.5850 153.4796 14.24980263720729
SPOT 6                  
1 38755U 12047A   26154.95775245  .00000218  00000+0  56701-4 0  9997
2 38755  98.2121 222.4204 0001386  93.9922 266.1436 14.58554073731125
PLEIADES 1B             
1 39019U 12068A   26154.97664418  .00000248  00000+0  63158-4 0  9992
2 39019  98.1948 230.2098 0001523  97.5814 262.5558 14.58551414718920
GOKTURK 2               
1 39030U 12073A   26154.92501028  .00001007  00000+0  15485-3 0  9996
2 39030  97.6820 353.0211 0001997  66.2908 293.8512 14.75530826722553
LANDSAT 8               
1 39084U 13008A   26154.90877920  .00000375  00000+0  93369-4 0  9994
2 39084  98.2304 225.2012 0001453  97.7596 262.3767 14.57109394695963
SARAL                   
1 39086U 13009A   26154.91272960  .00000079  00000+0  44877-4 0  9992
2 39086  98.5557 341.6483 0001474   5.4692 354.6508 14.32852600693705
GAOFEN-1                
1 39150U 13018A   26154.91611939  .00000172  00000+0  32006-4 0  9992
2 39150  97.9097 227.2533 0016128 312.7985  47.1868 14.76521668706281
VNREDSAT 1              
1 39160U 13021B   26154.97399793  .00000497  00000+0  10157-3 0  9996
2 39160  97.9083 208.8969 0001634  92.6406 267.4984 14.64841898698354
ARIRANG-5 (KOMPSAT-5)   
1 39227U 13042A   26154.93087762  .00002740  00000+0  19986-3 0  9991
2 39227  97.6196 341.8171 0003695 159.4300 200.7075 15.04540775701864
SKYSAT-A                
1 39418U 13066C   26154.63282374  .00003429  00000+0  19741-3 0  9996
2 39418  97.3817 204.4620 0021370   5.7951 354.3523 15.12895741686435
DUBAISAT-2              
1 39419U 13066D   26154.95107663  .00004992  00000+0  30979-3 0  9991
2 39419  97.4566 145.4430 0013264  80.2809 279.9918 15.10079904684390
GPM-CORE                
1 39574U 14009C   26154.74532498  .00009972  00000+0  21219-3 0  9996
2 39574  64.9729 353.1723 0012018 268.6447  91.3317 15.45378586695736
SENTINEL-1A             
1 39634U 14016A   26155.06464458  .00000169  00000+0  45660-4 0  9993
2 39634  98.1787 162.7894 0001385  90.2470 269.8888 14.59198949648100
KAZEOSAT 1              
1 39731U 14024A   26154.97736220  .00000077  00000+0  36328-4 0  9997
2 39731  98.3207 227.7524 0001513  78.9234 281.2126 14.42073959636658
